,parentobjectid,parentprojectid,parentname,parentid,childobjectid,childprojectid,childname,childid,fullpathname,parentlevelsbelowroot
0,27810,4829,Flexibility pipeline Baseline,Q2191-BL,27810,4829,Flexibility pipeline Baseline,Q2191-BL,Q2191-BL,1
1,27810,4829,Flexibility pipeline Baseline,Q2191-BL,27811,4829,COMMISSIONING,CS,Q2191-BL.CS,1
2,27810,4829,Flexibility pipeline Baseline,Q2191-BL,27812,4829,CONSTRUCTION,CN,Q2191-BL.CN,1
3,27810,4829,Flexibility pipeline Baseline,Q2191-BL,27813,4829,CONTRACTS / PROCUREMENT,PR,Q2191-BL.PR,1
4,27810,4829,Flexibility pipeline Baseline,Q2191-BL,27814,4829,PROJECT KEY MILESTONES,ML,Q2191-BL.ML,1
5,27810,4829,Flexibility pipeline Baseline,Q2191-BL,27815,4829,ENGINEERING,DD,Q2191-BL.DD,1
6,27810,4829,Flexibility pipeline Baseline,Q2191-BL,27816,4829,PROCUREMENT - POST AWARD,1,Q2191-BL.1,1
7,27810,4829,Flexibility pipeline Baseline,Q2191-BL,27817,4829,COM- Pipe Loop for Flash Water,WL,Q2191-BL.CS.WL,1
8,27810,4829,Flexibility pipeline Baseline,Q2191-BL,27818,4829,PRC - Silica Line,SL,Q2191-BL.PR.SL,1
9,27810,4829,Flexibility pipeline Baseline,Q2191-BL,27819,4829,COM- Slurry Transfert - DWS to local Tanks,TF,Q2191-BL.CS.TF,1
10,27810,4829,Flexibility pipeline Baseline,Q2191-BL,27820,4829,COM- Silica Line,1,Q2191-BL.CS.1,1
11,27810,4829,Flexibility pipeline Baseline,Q2191-BL,27821,4829,MLS- Slurry Transfert - DWS to local Tanks,TF,Q2191-BL.ML.TF,1
12,27810,4829,Flexibility pipeline Baseline,Q2191-BL,27822,4829,PRC- Slurry Transfert - DWS to local Tanks,TF,Q2191-BL.1.TF,1
13,27810,4829,Flexibility pipeline Baseline,Q2191-BL,27823,4829,"CONS- General (VDS, Fire Protection, Access Upgrade)",CM,Q2191-BL.CN.CM,1
14,27810,4829,Flexibility pipeline Baseline,Q2191-BL,27824,4829,"COM- Additional Storage Tanks (TS, HS, BA)",TK,Q2191-BL.CS.TK,1
15,27810,4829,Flexibility pipeline Baseline,Q2191-BL,27825,4829,PRC- Slurry Transfert - DWS to local Tanks,TF,Q2191-BL.PR.TF,1
16,27810,4829,Flexibility pipeline Baseline,Q2191-BL,27826,4829,PRC - Silica Line,SL,Q2191-BL.1.SL,1
17,27810,4829,Flexibility pipeline Baseline,Q2191-BL,27827,4829,"ENG- Common (VDS, Fire Protection, Access Upgrade)",CM,Q2191-BL.DD.CM,1
18,27810,4829,Flexibility pipeline Baseline,Q2191-BL,27828,4829,"PRC - General (VDS, Fire Protection, Access Upgrade)",CM,Q2191-BL.1.CM,1
19,27810,4829,Flexibility pipeline Baseline,Q2191-BL,27829,4829,ENG- Slurry Transfert - DWS to local Tanks,TF,Q2191-BL.DD.TF,1
20,27810,4829,Flexibility pipeline Baseline,Q2191-BL,27830,4829,PRC- Pipe Loop for Flash Water,WL,Q2191-BL.PR.WL,1
21,27810,4829,Flexibility pipeline Baseline,Q2191-BL,27831,4829,"ENG- Additional Storage Tanks (TS, HS, BA)",TK,Q2191-BL.DD.TK,1
22,27810,4829,Flexibility pipeline Baseline,Q2191-BL,27832,4829,"PRC - General (VDS, Fire Protection, Access Upgrade)",CM,Q2191-BL.PR.CM,1
23,27810,4829,Flexibility pipeline Baseline,Q2191-BL,27833,4829,ENG- Pipe Loop for Flash Water,WL,Q2191-BL.DD.WL,1
24,27810,4829,Flexibility pipeline Baseline,Q2191-BL,27834,4829,"COM- General (VDS, Fire Protection, Acess Upgrade)",CM,Q2191-BL.CS.CM,1
25,27810,4829,Flexibility pipeline Baseline,Q2191-BL,27835,4829,ENG - Silica Line,1,Q2191-BL.DD.1,1
26,27810,4829,Flexibility pipeline Baseline,Q2191-BL,27836,4829,"CONS- Additional Storage Tanks (TS, HS, BA)",TK,Q2191-BL.CN.TK,1
27,27810,4829,Flexibility pipeline Baseline,Q2191-BL,27837,4829,"PRC- Additional Storage Tanks (TS, HS, BA)",TK,Q2191-BL.PR.TK,1
28,27810,4829,Flexibility pipeline Baseline,Q2191-BL,27838,4829,"MLS- Additional Storage Tanks (TS, HS, BA)",TK,Q2191-BL.ML.TK,1
29,27810,4829,Flexibility pipeline Baseline,Q2191-BL,27840,4829,MLS- Pipe Loop for Flash Water,WL,Q2191-BL.ML.WL,1
30,27810,4829,Flexibility pipeline Baseline,Q2191-BL,27841,4829,"PRC- Additional Storage Tanks (TS, HS, BA)",TK,Q2191-BL.1.TK,1
31,27810,4829,Flexibility pipeline Baseline,Q2191-BL,27839,4829,"MLS- Common (VDS, Fire Protection, Access Upgrade)",CM,Q2191-BL.ML.CM,1
32,27810,4829,Flexibility pipeline Baseline,Q2191-BL,27842,4829,CONS- Slurry Transfert - DWS to local Tanks,TF,Q2191-BL.CN.TF,1
33,27810,4829,Flexibility pipeline Baseline,Q2191-BL,27843,4829,CONS- Pipe Loop for Flash Water,WL,Q2191-BL.CN.WL,1
34,27810,4829,Flexibility pipeline Baseline,Q2191-BL,27844,4829,CONS- Silica Line,SL,Q2191-BL.CN.SL,1
35,27810,4829,Flexibility pipeline Baseline,Q2191-BL,27845,4829,PRC- Pipe Loop for Flash Water,WL,Q2191-BL.1.WL,1
36,27810,4829,Flexibility pipeline Baseline,Q2191-BL,27847,4829,PRC- Pumps,PM,Q2191-BL.PR.TF.PM,1
37,27810,4829,Flexibility pipeline Baseline,Q2191-BL,27846,4829,PRC- Electrical & Instruments,EI,Q2191-BL.PR.TK.EI,1
38,27810,4829,Flexibility pipeline Baseline,Q2191-BL,27848,4829,Head Station,HS,Q2191-BL.CS.TK.HS,1
39,27810,4829,Flexibility pipeline Baseline,Q2191-BL,27850,4829,PRC- Fire Protection,FP,Q2191-BL.1.CM.FP,1
40,27810,4829,Flexibility pipeline Baseline,Q2191-BL,27849,4829,ENG- Fire Protection,FP,Q2191-BL.DD.CM.FP,1
41,27810,4829,Flexibility pipeline Baseline,Q2191-BL,27851,4829,Potential Issues for Delay TRANSFERT,DL,Q2191-BL.PR.WL.DL,1
42,27810,4829,Flexibility pipeline Baseline,Q2191-BL,27852,4829,PRC- Slurry Valves,VL,Q2191-BL.PR.TF.VL,1
43,27810,4829,Flexibility pipeline Baseline,Q2191-BL,27853,4829,PRC- Slurry Valves,VL,Q2191-BL.1.TK.VL,1
44,27810,4829,Flexibility pipeline Baseline,Q2191-BL,27854,4829,COM- VDS,VD,Q2191-BL.CS.CM.VD,1
45,27810,4829,Flexibility pipeline Baseline,Q2191-BL,27855,4829,COM- Fire Protection,FP,Q2191-BL.CS.CM.FP,1
46,27810,4829,Flexibility pipeline Baseline,Q2191-BL,27856,4829,ENG - Additional Storage Tanks - Daoui,DO,Q2191-BL.DD.TK.DO,1
47,27810,4829,Flexibility pipeline Baseline,Q2191-BL,27857,4829,PRC- Structure Access Upgrades,AC,Q2191-BL.PR.CM.AC,1
48,27810,4829,Flexibility pipeline Baseline,Q2191-BL,27858,4829,Terminal Station,TS,Q2191-BL.CS.TK.TS,1
49,27810,4829,Flexibility pipeline Baseline,Q2191-BL,27859,4829,Daoui,DO,Q2191-BL.CS.TK.DO,1
50,27810,4829,Flexibility pipeline Baseline,Q2191-BL,27860,4829,Beni Amir,BA,Q2191-BL.CS.TK.BA,1
51,27810,4829,Flexibility pipeline Baseline,Q2191-BL,27861,4829,ENG - Additional Storage Tanks -Terminal Station,TS,Q2191-BL.DD.TK.TS,1
52,27810,4829,Flexibility pipeline Baseline,Q2191-BL,27862,4829,CONS - VDS (Video Surveillance System),VD,Q2191-BL.CN.CM.VD,1
53,27810,4829,Flexibility pipeline Baseline,Q2191-BL,27863,4829,PRC- Tanks,TK,Q2191-BL.PR.TK.TK,1
54,27810,4829,Flexibility pipeline Baseline,Q2191-BL,27864,4829,ENG - Additional Storage Tanks - Head Station,HS,Q2191-BL.DD.TK.HS,1
55,27810,4829,Flexibility pipeline Baseline,Q2191-BL,27865,4829,PRC- Slurry Valves,VL,Q2191-BL.1.TF.VL,1
56,27810,4829,Flexibility pipeline Baseline,Q2191-BL,27866,4829,CONS- Potential delay,1,Q2191-BL.1.TF.1,1
57,27810,4829,Flexibility pipeline Baseline,Q2191-BL,27867,4829,PRC- E&I (Planning not approved),EI,Q2191-BL.1.TF.EI,1
58,27810,4829,Flexibility pipeline Baseline,Q2191-BL,27868,4829,PRC- VDS (Video Surveillance System),VD,Q2191-BL.1.CM.VD,1
59,27810,4829,Flexibility pipeline Baseline,Q2191-BL,27869,4829,ENG - VDS,VD,Q2191-BL.DD.CM.VD,1
60,27810,4829,Flexibility pipeline Baseline,Q2191-BL,27870,4829,PRC- Structure Access Upgrades,AC,Q2191-BL.1.CM.AC,1
61,27810,4829,Flexibility pipeline Baseline,Q2191-BL,27871,4829,CONS- Additional Tanks - Head Station,TK2,Q2191-BL.CN.TK.TK2,1
62,27810,4829,Flexibility pipeline Baseline,Q2191-BL,27872,4829,Engineering (JESA),00,Q2191-BL.DD.TF.00,1
63,27810,4829,Flexibility pipeline Baseline,Q2191-BL,27873,4829,EG - Access Upgrade,UG,Q2191-BL.DD.CM.UG,1
64,27810,4829,Flexibility pipeline Baseline,Q2191-BL,27874,4829,PRC- Fire Protection,FP,Q2191-BL.PR.CM.FP,1
65,27810,4829,Flexibility pipeline Baseline,Q2191-BL,27875,4829,PRC- VDS (Video Surveillance System),VD,Q2191-BL.PR.CM.VD,1
66,27810,4829,Flexibility pipeline Baseline,Q2191-BL,27876,4829,PRC- Tanks,TK,Q2191-BL.1.TK.TK,1
67,27810,4829,Flexibility pipeline Baseline,Q2191-BL,27877,4829,CONS- Additional Tanks - Beni Amir,TK3,Q2191-BL.CN.TK.TK3,1
68,27810,4829,Flexibility pipeline Baseline,Q2191-BL,27878,4829,COM - Access Upgrade,AC,Q2191-BL.CS.CM.AC,1
69,27810,4829,Flexibility pipeline Baseline,Q2191-BL,27880,4829,CONS- Additional Tanks - Terminal Station,TK1,Q2191-BL.CN.TK.TK1,1
70,27810,4829,Flexibility pipeline Baseline,Q2191-BL,27879,4829,PRC- Slurry Valves,VL,Q2191-BL.PR.TK.VL,1
71,27810,4829,Flexibility pipeline Baseline,Q2191-BL,27881,4829,Silica Line - Mechanical Parts,PM,Q2191-BL.CN.SL.PM,1
72,27810,4829,Flexibility pipeline Baseline,Q2191-BL,27882,4829,ENG - Additional Storage Tanks - Beni Amir,BA,Q2191-BL.DD.TK.BA,1
73,27810,4829,Flexibility pipeline Baseline,Q2191-BL,27883,4829,CONS - Fire Protection,FP,Q2191-BL.CN.CM.FP,1
74,27810,4829,Flexibility pipeline Baseline,Q2191-BL,27884,4829,"DWS Loop Erection, Cx & Start-Up",ER,Q2191-BL.CN.WL.ER,1
75,27810,4829,Flexibility pipeline Baseline,Q2191-BL,27885,4829,PRC- Pumps,PM,Q2191-BL.1.TF.PM,1
76,27810,4829,Flexibility pipeline Baseline,Q2191-BL,27886,4829,Silica Line - Structural Works,ST,Q2191-BL.CN.SL.ST,1
77,27810,4829,Flexibility pipeline Baseline,Q2191-BL,27888,4829,PRC- Agitators,AG,Q2191-BL.1.TK.AG,1
78,27810,4829,Flexibility pipeline Baseline,Q2191-BL,27889,4829,CONS - Slurry Transfert - Terminal Station,TS,Q2191-BL.CN.TF.TS,1
79,27810,4829,Flexibility pipeline Baseline,Q2191-BL,27887,4829,Silica Line - Piping,PP,Q2191-BL.CN.SL.PP,1
80,27810,4829,Flexibility pipeline Baseline,Q2191-BL,27890,4829,Engineering (STROC),01,Q2191-BL.DD.TF.01,1
81,27810,4829,Flexibility pipeline Baseline,Q2191-BL,27891,4829,PRC- Agitators,AG,Q2191-BL.PR.TK.AG,1
82,27810,4829,Flexibility pipeline Baseline,Q2191-BL,27892,4829,CONS - Structure Access,AC,Q2191-BL.CN.CM.AC,1
83,27810,4829,Flexibility pipeline Baseline,Q2191-BL,27894,4829,CONS-Daoui Splitter Box,TK,Q2191-BL.CN.TK.TK,1
84,27810,4829,Flexibility pipeline Baseline,Q2191-BL,27893,4829,Silica Line - E&I,EI,Q2191-BL.CN.SL.EI,1
85,27810,4829,Flexibility pipeline Baseline,Q2191-BL,27895,4829,Silica Line - Civil lWorks,CV,Q2191-BL.CN.SL.CV,1
86,27810,4829,Flexibility pipeline Baseline,Q2191-BL,27896,4829,ENG- Agitator Structure & FDN,AG,Q2191-BL.DD.TK.BA.AG,1
87,27810,4829,Flexibility pipeline Baseline,Q2191-BL,27897,4829,ENG - Splitter box,1,Q2191-BL.DD.TK.DO.1,1
88,27810,4829,Flexibility pipeline Baseline,Q2191-BL,27898,4829,ENG - Slurry Tanks,TK,Q2191-BL.DD.TK.HS.TK,1
89,27810,4829,Flexibility pipeline Baseline,Q2191-BL,27899,4829,Daoui,3,Q2191-BL.1.TK.TK.3,1
90,27810,4829,Flexibility pipeline Baseline,Q2191-BL,27900,4829,ENG - Agitator Structure & FDN,AG,Q2191-BL.DD.TK.TS.AG,1
91,27810,4829,Flexibility pipeline Baseline,Q2191-BL,27901,4829,ENG - Piping,PP,Q2191-BL.DD.TK.TS.PP,1
92,27810,4829,Flexibility pipeline Baseline,Q2191-BL,27903,4829,TS Tanks - Structural Parts,ST,Q2191-BL.CN.TK.TK1.ST,1
93,27810,4829,Flexibility pipeline Baseline,Q2191-BL,27902,4829,Potential Issues for Delay,DL,Q2191-BL.PR.TF.PM.DL,1
94,27810,4829,Flexibility pipeline Baseline,Q2191-BL,27904,4829,ENG - Piping,PP,Q2191-BL.DD.TK.HS.PP,1
95,27810,4829,Flexibility pipeline Baseline,Q2191-BL,27905,4829,ENG - Slurry Tanks,TK,Q2191-BL.DD.TK.TS.TK,1
96,27810,4829,Flexibility pipeline Baseline,Q2191-BL,27906,4829,ENG - Piping,PP,Q2191-BL.DD.TK.BA.PP,1
97,27810,4829,Flexibility pipeline Baseline,Q2191-BL,27907,4829,Beni Amir,2,Q2191-BL.1.TK.TK.2,1
98,27810,4829,Flexibility pipeline Baseline,Q2191-BL,27908,4829,Potential Issues for Delay,DL,Q2191-BL.PR.TF.VL.DL,1
99,27810,4829,Flexibility pipeline Baseline,Q2191-BL,27909,4829,Terminal Station,4,Q2191-BL.1.TK.TK.4,1
100,27810,4829,Flexibility pipeline Baseline,Q2191-BL,27910,4829,TS - E&I,EI,Q2191-BL.CN.TK.TK1.EI,1
101,27810,4829,Flexibility pipeline Baseline,Q2191-BL,27911,4829,TS Tanks - Piping,PP,Q2191-BL.CN.TK.TK1.PP,1
102,27810,4829,Flexibility pipeline Baseline,Q2191-BL,27912,4829,ENG - Agitator Structure & FDN,AG,Q2191-BL.DD.TK.HS.AG,1
103,27810,4829,Flexibility pipeline Baseline,Q2191-BL,27913,4829,Daoui Splitter Box - Piping,PP,Q2191-BL.CN.TK.TK.PP,1
104,27810,4829,Flexibility pipeline Baseline,Q2191-BL,27914,4829,Daoui Splitter Box - Structural parts,ST,Q2191-BL.CN.TK.TK.ST,1
105,27810,4829,Flexibility pipeline Baseline,Q2191-BL,27915,4829,Tanks - Head Station,1,Q2191-BL.1.TK.TK.1,1
106,27810,4829,Flexibility pipeline Baseline,Q2191-BL,27916,4829,BA Tanks - Civil Works,CV,Q2191-BL.CN.TK.TK3.CV,1
107,27810,4829,Flexibility pipeline Baseline,Q2191-BL,27917,4829,BA Tanks - Piping,PP,Q2191-BL.CN.TK.TK3.PP,1
108,27810,4829,Flexibility pipeline Baseline,Q2191-BL,27918,4829,BA Tanks - Structural Parts,ST,Q2191-BL.CN.TK.TK3.ST,1
109,27810,4829,Flexibility pipeline Baseline,Q2191-BL,27919,4829,BA E&I,EI,Q2191-BL.CN.TK.TK3.EI,1
110,27810,4829,Flexibility pipeline Baseline,Q2191-BL,27920,4829,BA Agitators,AG,Q2191-BL.CN.TK.TK3.AG,1
111,27810,4829,Flexibility pipeline Baseline,Q2191-BL,27921,4829,ENG - Slurry Tanks   (New Tks FDNs),TK,Q2191-BL.DD.TK.BA.TK,1
112,27810,4829,Flexibility pipeline Baseline,Q2191-BL,27922,4829,Potential Issues for Delay,DL,Q2191-BL.PR.TK.AG.DL,1
113,27810,4829,Flexibility pipeline Baseline,Q2191-BL,27923,4829,TS - Agitators,AG,Q2191-BL.CN.TK.TK1.AG,1
114,27810,4829,Flexibility pipeline Baseline,Q2191-BL,27924,4829,Potential Issues for Delay TANKS,DL,Q2191-BL.PR.TK.TK.DL,1
115,27810,4829,Flexibility pipeline Baseline,Q2191-BL,27925,4829,Potential Delay,1,Q2191-BL.CN.CM.FP.1,1
116,27810,4829,Flexibility pipeline Baseline,Q2191-BL,27926,4829,Potential Issues for Delay EI,DL,Q2191-BL.PR.TK.EI.DL,1
117,27810,4829,Flexibility pipeline Baseline,Q2191-BL,27927,4829,HS - Agitators,AG,Q2191-BL.CN.TK.TK2.AG,1
118,27810,4829,Flexibility pipeline Baseline,Q2191-BL,27928,4829,HS - E&I,EI,Q2191-BL.CN.TK.TK2.EI,1
119,27810,4829,Flexibility pipeline Baseline,Q2191-BL,27929,4829,HS Tanks - Structural part,ST,Q2191-BL.CN.TK.TK2.ST,1
120,27810,4829,Flexibility pipeline Baseline,Q2191-BL,27930,4829,HS Tanks - Piping,PP,Q2191-BL.CN.TK.TK2.PP,1
121,27810,4829,Flexibility pipeline Baseline,Q2191-BL,27931,4829,CONS- Piping,PP,Q2191-BL.CN.TF.TS.PP,1
122,27810,4829,Flexibility pipeline Baseline,Q2191-BL,27932,4829,CONS- E&I,EI,Q2191-BL.CN.TF.TS.EI,1
123,27810,4829,Flexibility pipeline Baseline,Q2191-BL,27933,4829,CONS-  Civil,CV,Q2191-BL.CN.TF.TS.CV,1
124,27810,4829,Flexibility pipeline Baseline,Q2191-BL,27934,4829,CONS- Pumps,PM,Q2191-BL.CN.TF.TS.PM,1
125,27810,4829,Flexibility pipeline Baseline,Q2191-BL,27935,4829,CONS- Structural,ST,Q2191-BL.CN.TF.TS.ST,1
126,27810,4829,Flexibility pipeline Baseline,Q2191-BL,470971,4829,LOF,2,Q2191-BL.2,1
127,27810,4829,Flexibility pipeline Baseline,Q2191-BL,1073270,4829,Priorité N°1,1,Q2191-BL.2.1,1
128,27810,4829,Flexibility pipeline Baseline,Q2191-BL,1073271,4829,Priorité N°2,2,Q2191-BL.2.2,1
129,27811,4829,COMMISSIONING,CS,27878,4829,COM - Access Upgrade,AC,Q2191-BL.CS.CM.AC,2
130,27811,4829,COMMISSIONING,CS,27860,4829,Beni Amir,BA,Q2191-BL.CS.TK.BA,2
131,27811,4829,COMMISSIONING,CS,27859,4829,Daoui,DO,Q2191-BL.CS.TK.DO,2
132,27811,4829,COMMISSIONING,CS,27858,4829,Terminal Station,TS,Q2191-BL.CS.TK.TS,2
133,27811,4829,COMMISSIONING,CS,27855,4829,COM- Fire Protection,FP,Q2191-BL.CS.CM.FP,2
134,27811,4829,COMMISSIONING,CS,27854,4829,COM- VDS,VD,Q2191-BL.CS.CM.VD,2
135,27811,4829,COMMISSIONING,CS,27848,4829,Head Station,HS,Q2191-BL.CS.TK.HS,2
136,27811,4829,COMMISSIONING,CS,27834,4829,"COM- General (VDS, Fire Protection, Acess Upgrade)",CM,Q2191-BL.CS.CM,2
137,27811,4829,COMMISSIONING,CS,27824,4829,"COM- Additional Storage Tanks (TS, HS, BA)",TK,Q2191-BL.CS.TK,2
138,27811,4829,COMMISSIONING,CS,27820,4829,COM- Silica Line,1,Q2191-BL.CS.1,2
139,27811,4829,COMMISSIONING,CS,27819,4829,COM- Slurry Transfert - DWS to local Tanks,TF,Q2191-BL.CS.TF,2
140,27811,4829,COMMISSIONING,CS,27817,4829,COM- Pipe Loop for Flash Water,WL,Q2191-BL.CS.WL,2
141,27811,4829,COMMISSIONING,CS,27811,4829,COMMISSIONING,CS,Q2191-BL.CS,2
142,27812,4829,CONSTRUCTION,CN,27812,4829,CONSTRUCTION,CN,Q2191-BL.CN,2
143,27812,4829,CONSTRUCTION,CN,27823,4829,"CONS- General (VDS, Fire Protection, Access Upgrade)",CM,Q2191-BL.CN.CM,2
144,27812,4829,CONSTRUCTION,CN,27836,4829,"CONS- Additional Storage Tanks (TS, HS, BA)",TK,Q2191-BL.CN.TK,2
145,27812,4829,CONSTRUCTION,CN,27844,4829,CONS- Silica Line,SL,Q2191-BL.CN.SL,2
146,27812,4829,CONSTRUCTION,CN,27843,4829,CONS- Pipe Loop for Flash Water,WL,Q2191-BL.CN.WL,2
147,27812,4829,CONSTRUCTION,CN,27842,4829,CONS- Slurry Transfert - DWS to local Tanks,TF,Q2191-BL.CN.TF,2
148,27812,4829,CONSTRUCTION,CN,27862,4829,CONS - VDS (Video Surveillance System),VD,Q2191-BL.CN.CM.VD,2
149,27812,4829,CONSTRUCTION,CN,27871,4829,CONS- Additional Tanks - Head Station,TK2,Q2191-BL.CN.TK.TK2,2
150,27812,4829,CONSTRUCTION,CN,27880,4829,CONS- Additional Tanks - Terminal Station,TK1,Q2191-BL.CN.TK.TK1,2
151,27812,4829,CONSTRUCTION,CN,27877,4829,CONS- Additional Tanks - Beni Amir,TK3,Q2191-BL.CN.TK.TK3,2
152,27812,4829,CONSTRUCTION,CN,27884,4829,"DWS Loop Erection, Cx & Start-Up",ER,Q2191-BL.CN.WL.ER,2
153,27812,4829,CONSTRUCTION,CN,27883,4829,CONS - Fire Protection,FP,Q2191-BL.CN.CM.FP,2
154,27812,4829,CONSTRUCTION,CN,27881,4829,Silica Line - Mechanical Parts,PM,Q2191-BL.CN.SL.PM,2
155,27812,4829,CONSTRUCTION,CN,27895,4829,Silica Line - Civil lWorks,CV,Q2191-BL.CN.SL.CV,2
156,27812,4829,CONSTRUCTION,CN,27893,4829,Silica Line - E&I,EI,Q2191-BL.CN.SL.EI,2
157,27812,4829,CONSTRUCTION,CN,27894,4829,CONS-Daoui Splitter Box,TK,Q2191-BL.CN.TK.TK,2
158,27812,4829,CONSTRUCTION,CN,27892,4829,CONS - Structure Access,AC,Q2191-BL.CN.CM.AC,2
159,27812,4829,CONSTRUCTION,CN,27887,4829,Silica Line - Piping,PP,Q2191-BL.CN.SL.PP,2
160,27812,4829,CONSTRUCTION,CN,27889,4829,CONS - Slurry Transfert - Terminal Station,TS,Q2191-BL.CN.TF.TS,2
161,27812,4829,CONSTRUCTION,CN,27886,4829,Silica Line - Structural Works,ST,Q2191-BL.CN.SL.ST,2
162,27812,4829,CONSTRUCTION,CN,27935,4829,CONS- Structural,ST,Q2191-BL.CN.TF.TS.ST,2
163,27812,4829,CONSTRUCTION,CN,27934,4829,CONS- Pumps,PM,Q2191-BL.CN.TF.TS.PM,2
164,27812,4829,CONSTRUCTION,CN,27933,4829,CONS-  Civil,CV,Q2191-BL.CN.TF.TS.CV,2
165,27812,4829,CONSTRUCTION,CN,27932,4829,CONS- E&I,EI,Q2191-BL.CN.TF.TS.EI,2
166,27812,4829,CONSTRUCTION,CN,27931,4829,CONS- Piping,PP,Q2191-BL.CN.TF.TS.PP,2
167,27812,4829,CONSTRUCTION,CN,27930,4829,HS Tanks - Piping,PP,Q2191-BL.CN.TK.TK2.PP,2
168,27812,4829,CONSTRUCTION,CN,27929,4829,HS Tanks - Structural part,ST,Q2191-BL.CN.TK.TK2.ST,2
169,27812,4829,CONSTRUCTION,CN,27928,4829,HS - E&I,EI,Q2191-BL.CN.TK.TK2.EI,2
170,27812,4829,CONSTRUCTION,CN,27927,4829,HS - Agitators,AG,Q2191-BL.CN.TK.TK2.AG,2
171,27812,4829,CONSTRUCTION,CN,27925,4829,Potential Delay,1,Q2191-BL.CN.CM.FP.1,2
172,27812,4829,CONSTRUCTION,CN,27923,4829,TS - Agitators,AG,Q2191-BL.CN.TK.TK1.AG,2
173,27812,4829,CONSTRUCTION,CN,27920,4829,BA Agitators,AG,Q2191-BL.CN.TK.TK3.AG,2
174,27812,4829,CONSTRUCTION,CN,27919,4829,BA E&I,EI,Q2191-BL.CN.TK.TK3.EI,2
175,27812,4829,CONSTRUCTION,CN,27918,4829,BA Tanks - Structural Parts,ST,Q2191-BL.CN.TK.TK3.ST,2
176,27812,4829,CONSTRUCTION,CN,27917,4829,BA Tanks - Piping,PP,Q2191-BL.CN.TK.TK3.PP,2
177,27812,4829,CONSTRUCTION,CN,27916,4829,BA Tanks - Civil Works,CV,Q2191-BL.CN.TK.TK3.CV,2
178,27812,4829,CONSTRUCTION,CN,27914,4829,Daoui Splitter Box - Structural parts,ST,Q2191-BL.CN.TK.TK.ST,2
179,27812,4829,CONSTRUCTION,CN,27913,4829,Daoui Splitter Box - Piping,PP,Q2191-BL.CN.TK.TK.PP,2
180,27812,4829,CONSTRUCTION,CN,27911,4829,TS Tanks - Piping,PP,Q2191-BL.CN.TK.TK1.PP,2
181,27812,4829,CONSTRUCTION,CN,27910,4829,TS - E&I,EI,Q2191-BL.CN.TK.TK1.EI,2
182,27812,4829,CONSTRUCTION,CN,27903,4829,TS Tanks - Structural Parts,ST,Q2191-BL.CN.TK.TK1.ST,2
183,27813,4829,CONTRACTS / PROCUREMENT,PR,27902,4829,Potential Issues for Delay,DL,Q2191-BL.PR.TF.PM.DL,2
184,27813,4829,CONTRACTS / PROCUREMENT,PR,27908,4829,Potential Issues for Delay,DL,Q2191-BL.PR.TF.VL.DL,2
185,27813,4829,CONTRACTS / PROCUREMENT,PR,27924,4829,Potential Issues for Delay TANKS,DL,Q2191-BL.PR.TK.TK.DL,2
186,27813,4829,CONTRACTS / PROCUREMENT,PR,27922,4829,Potential Issues for Delay,DL,Q2191-BL.PR.TK.AG.DL,2
187,27813,4829,CONTRACTS / PROCUREMENT,PR,27926,4829,Potential Issues for Delay EI,DL,Q2191-BL.PR.TK.EI.DL,2
188,27813,4829,CONTRACTS / PROCUREMENT,PR,27891,4829,PRC- Agitators,AG,Q2191-BL.PR.TK.AG,2
189,27813,4829,CONTRACTS / PROCUREMENT,PR,27879,4829,PRC- Slurry Valves,VL,Q2191-BL.PR.TK.VL,2
190,27813,4829,CONTRACTS / PROCUREMENT,PR,27875,4829,PRC- VDS (Video Surveillance System),VD,Q2191-BL.PR.CM.VD,2
191,27813,4829,CONTRACTS / PROCUREMENT,PR,27874,4829,PRC- Fire Protection,FP,Q2191-BL.PR.CM.FP,2
192,27813,4829,CONTRACTS / PROCUREMENT,PR,27863,4829,PRC- Tanks,TK,Q2191-BL.PR.TK.TK,2
193,27813,4829,CONTRACTS / PROCUREMENT,PR,27847,4829,PRC- Pumps,PM,Q2191-BL.PR.TF.PM,2
194,27813,4829,CONTRACTS / PROCUREMENT,PR,27846,4829,PRC- Electrical & Instruments,EI,Q2191-BL.PR.TK.EI,2
195,27813,4829,CONTRACTS / PROCUREMENT,PR,27857,4829,PRC- Structure Access Upgrades,AC,Q2191-BL.PR.CM.AC,2
196,27813,4829,CONTRACTS / PROCUREMENT,PR,27852,4829,PRC- Slurry Valves,VL,Q2191-BL.PR.TF.VL,2
197,27813,4829,CONTRACTS / PROCUREMENT,PR,27851,4829,Potential Issues for Delay TRANSFERT,DL,Q2191-BL.PR.WL.DL,2
198,27813,4829,CONTRACTS / PROCUREMENT,PR,27837,4829,"PRC- Additional Storage Tanks (TS, HS, BA)",TK,Q2191-BL.PR.TK,2
199,27813,4829,CONTRACTS / PROCUREMENT,PR,27832,4829,"PRC - General (VDS, Fire Protection, Access Upgrade)",CM,Q2191-BL.PR.CM,2
200,27813,4829,CONTRACTS / PROCUREMENT,PR,27830,4829,PRC- Pipe Loop for Flash Water,WL,Q2191-BL.PR.WL,2
201,27813,4829,CONTRACTS / PROCUREMENT,PR,27825,4829,PRC- Slurry Transfert - DWS to local Tanks,TF,Q2191-BL.PR.TF,2
202,27813,4829,CONTRACTS / PROCUREMENT,PR,27813,4829,CONTRACTS / PROCUREMENT,PR,Q2191-BL.PR,2
203,27813,4829,CONTRACTS / PROCUREMENT,PR,27818,4829,PRC - Silica Line,SL,Q2191-BL.PR.SL,2
204,27814,4829,PROJECT KEY MILESTONES,ML,27814,4829,PROJECT KEY MILESTONES,ML,Q2191-BL.ML,2
205,27814,4829,PROJECT KEY MILESTONES,ML,27821,4829,MLS- Slurry Transfert - DWS to local Tanks,TF,Q2191-BL.ML.TF,2
206,27814,4829,PROJECT KEY MILESTONES,ML,27840,4829,MLS- Pipe Loop for Flash Water,WL,Q2191-BL.ML.WL,2
207,27814,4829,PROJECT KEY MILESTONES,ML,27839,4829,"MLS- Common (VDS, Fire Protection, Access Upgrade)",CM,Q2191-BL.ML.CM,2
208,27814,4829,PROJECT KEY MILESTONES,ML,27838,4829,"MLS- Additional Storage Tanks (TS, HS, BA)",TK,Q2191-BL.ML.TK,2
209,27815,4829,ENGINEERING,DD,27849,4829,ENG- Fire Protection,FP,Q2191-BL.DD.CM.FP,2
210,27815,4829,ENGINEERING,DD,27856,4829,ENG - Additional Storage Tanks - Daoui,DO,Q2191-BL.DD.TK.DO,2
211,27815,4829,ENGINEERING,DD,27815,4829,ENGINEERING,DD,Q2191-BL.DD,2
212,27815,4829,ENGINEERING,DD,27827,4829,"ENG- Common (VDS, Fire Protection, Access Upgrade)",CM,Q2191-BL.DD.CM,2
213,27815,4829,ENGINEERING,DD,27829,4829,ENG- Slurry Transfert - DWS to local Tanks,TF,Q2191-BL.DD.TF,2
214,27815,4829,ENGINEERING,DD,27831,4829,"ENG- Additional Storage Tanks (TS, HS, BA)",TK,Q2191-BL.DD.TK,2
215,27815,4829,ENGINEERING,DD,27833,4829,ENG- Pipe Loop for Flash Water,WL,Q2191-BL.DD.WL,2
216,27815,4829,ENGINEERING,DD,27835,4829,ENG - Silica Line,1,Q2191-BL.DD.1,2
217,27815,4829,ENGINEERING,DD,27861,4829,ENG - Additional Storage Tanks -Terminal Station,TS,Q2191-BL.DD.TK.TS,2
218,27815,4829,ENGINEERING,DD,27864,4829,ENG - Additional Storage Tanks - Head Station,HS,Q2191-BL.DD.TK.HS,2
219,27815,4829,ENGINEERING,DD,27873,4829,EG - Access Upgrade,UG,Q2191-BL.DD.CM.UG,2
220,27815,4829,ENGINEERING,DD,27872,4829,Engineering (JESA),00,Q2191-BL.DD.TF.00,2
221,27815,4829,ENGINEERING,DD,27869,4829,ENG - VDS,VD,Q2191-BL.DD.CM.VD,2
222,27815,4829,ENGINEERING,DD,27882,4829,ENG - Additional Storage Tanks - Beni Amir,BA,Q2191-BL.DD.TK.BA,2
223,27815,4829,ENGINEERING,DD,27890,4829,Engineering (STROC),01,Q2191-BL.DD.TF.01,2
224,27815,4829,ENGINEERING,DD,27921,4829,ENG - Slurry Tanks   (New Tks FDNs),TK,Q2191-BL.DD.TK.BA.TK,2
225,27815,4829,ENGINEERING,DD,27912,4829,ENG - Agitator Structure & FDN,AG,Q2191-BL.DD.TK.HS.AG,2
226,27815,4829,ENGINEERING,DD,27906,4829,ENG - Piping,PP,Q2191-BL.DD.TK.BA.PP,2
227,27815,4829,ENGINEERING,DD,27905,4829,ENG - Slurry Tanks,TK,Q2191-BL.DD.TK.TS.TK,2
228,27815,4829,ENGINEERING,DD,27904,4829,ENG - Piping,PP,Q2191-BL.DD.TK.HS.PP,2
229,27815,4829,ENGINEERING,DD,27901,4829,ENG - Piping,PP,Q2191-BL.DD.TK.TS.PP,2
230,27815,4829,ENGINEERING,DD,27900,4829,ENG - Agitator Structure & FDN,AG,Q2191-BL.DD.TK.TS.AG,2
231,27815,4829,ENGINEERING,DD,27898,4829,ENG - Slurry Tanks,TK,Q2191-BL.DD.TK.HS.TK,2
232,27815,4829,ENGINEERING,DD,27897,4829,ENG - Splitter box,1,Q2191-BL.DD.TK.DO.1,2
233,27815,4829,ENGINEERING,DD,27896,4829,ENG- Agitator Structure & FDN,AG,Q2191-BL.DD.TK.BA.AG,2
234,27816,4829,PROCUREMENT - POST AWARD,1,27899,4829,Daoui,3,Q2191-BL.1.TK.TK.3,2
235,27816,4829,PROCUREMENT - POST AWARD,1,27907,4829,Beni Amir,2,Q2191-BL.1.TK.TK.2,2
236,27816,4829,PROCUREMENT - POST AWARD,1,27909,4829,Terminal Station,4,Q2191-BL.1.TK.TK.4,2
237,27816,4829,PROCUREMENT - POST AWARD,1,27915,4829,Tanks - Head Station,1,Q2191-BL.1.TK.TK.1,2
238,27816,4829,PROCUREMENT - POST AWARD,1,27888,4829,PRC- Agitators,AG,Q2191-BL.1.TK.AG,2
239,27816,4829,PROCUREMENT - POST AWARD,1,27885,4829,PRC- Pumps,PM,Q2191-BL.1.TF.PM,2
240,27816,4829,PROCUREMENT - POST AWARD,1,27876,4829,PRC- Tanks,TK,Q2191-BL.1.TK.TK,2
241,27816,4829,PROCUREMENT - POST AWARD,1,27868,4829,PRC- VDS (Video Surveillance System),VD,Q2191-BL.1.CM.VD,2
242,27816,4829,PROCUREMENT - POST AWARD,1,27867,4829,PRC- E&I (Planning not approved),EI,Q2191-BL.1.TF.EI,2
243,27816,4829,PROCUREMENT - POST AWARD,1,27870,4829,PRC- Structure Access Upgrades,AC,Q2191-BL.1.CM.AC,2
244,27816,4829,PROCUREMENT - POST AWARD,1,27866,4829,CONS- Potential delay,1,Q2191-BL.1.TF.1,2
245,27816,4829,PROCUREMENT - POST AWARD,1,27865,4829,PRC- Slurry Valves,VL,Q2191-BL.1.TF.VL,2
246,27816,4829,PROCUREMENT - POST AWARD,1,27826,4829,PRC - Silica Line,SL,Q2191-BL.1.SL,2
247,27816,4829,PROCUREMENT - POST AWARD,1,27828,4829,"PRC - General (VDS, Fire Protection, Access Upgrade)",CM,Q2191-BL.1.CM,2
248,27816,4829,PROCUREMENT - POST AWARD,1,27816,4829,PROCUREMENT - POST AWARD,1,Q2191-BL.1,2
249,27816,4829,PROCUREMENT - POST AWARD,1,27822,4829,PRC- Slurry Transfert - DWS to local Tanks,TF,Q2191-BL.1.TF,2
250,27816,4829,PROCUREMENT - POST AWARD,1,27850,4829,PRC- Fire Protection,FP,Q2191-BL.1.CM.FP,2
251,27816,4829,PROCUREMENT - POST AWARD,1,27853,4829,PRC- Slurry Valves,VL,Q2191-BL.1.TK.VL,2
252,27816,4829,PROCUREMENT - POST AWARD,1,27841,4829,"PRC- Additional Storage Tanks (TS, HS, BA)",TK,Q2191-BL.1.TK,2
253,27816,4829,PROCUREMENT - POST AWARD,1,27845,4829,PRC- Pipe Loop for Flash Water,WL,Q2191-BL.1.WL,2
254,27817,4829,COM- Pipe Loop for Flash Water,WL,27817,4829,COM- Pipe Loop for Flash Water,WL,Q2191-BL.CS.WL,3
255,27818,4829,PRC - Silica Line,SL,27818,4829,PRC - Silica Line,SL,Q2191-BL.PR.SL,3
256,27819,4829,COM- Slurry Transfert - DWS to local Tanks,TF,27819,4829,COM- Slurry Transfert - DWS to local Tanks,TF,Q2191-BL.CS.TF,3
257,27820,4829,COM- Silica Line,1,27820,4829,COM- Silica Line,1,Q2191-BL.CS.1,3
258,27821,4829,MLS- Slurry Transfert - DWS to local Tanks,TF,27821,4829,MLS- Slurry Transfert - DWS to local Tanks,TF,Q2191-BL.ML.TF,3
259,27822,4829,PRC- Slurry Transfert - DWS to local Tanks,TF,27822,4829,PRC- Slurry Transfert - DWS to local Tanks,TF,Q2191-BL.1.TF,3
260,27822,4829,PRC- Slurry Transfert - DWS to local Tanks,TF,27865,4829,PRC- Slurry Valves,VL,Q2191-BL.1.TF.VL,3
261,27822,4829,PRC- Slurry Transfert - DWS to local Tanks,TF,27866,4829,CONS- Potential delay,1,Q2191-BL.1.TF.1,3
262,27822,4829,PRC- Slurry Transfert - DWS to local Tanks,TF,27867,4829,PRC- E&I (Planning not approved),EI,Q2191-BL.1.TF.EI,3
263,27822,4829,PRC- Slurry Transfert - DWS to local Tanks,TF,27885,4829,PRC- Pumps,PM,Q2191-BL.1.TF.PM,3
264,27823,4829,"CONS- General (VDS, Fire Protection, Access Upgrade)",CM,27883,4829,CONS - Fire Protection,FP,Q2191-BL.CN.CM.FP,3
265,27823,4829,"CONS- General (VDS, Fire Protection, Access Upgrade)",CM,27862,4829,CONS - VDS (Video Surveillance System),VD,Q2191-BL.CN.CM.VD,3
266,27823,4829,"CONS- General (VDS, Fire Protection, Access Upgrade)",CM,27823,4829,"CONS- General (VDS, Fire Protection, Access Upgrade)",CM,Q2191-BL.CN.CM,3
267,27823,4829,"CONS- General (VDS, Fire Protection, Access Upgrade)",CM,27892,4829,CONS - Structure Access,AC,Q2191-BL.CN.CM.AC,3
268,27823,4829,"CONS- General (VDS, Fire Protection, Access Upgrade)",CM,27925,4829,Potential Delay,1,Q2191-BL.CN.CM.FP.1,3
269,27824,4829,"COM- Additional Storage Tanks (TS, HS, BA)",TK,27824,4829,"COM- Additional Storage Tanks (TS, HS, BA)",TK,Q2191-BL.CS.TK,3
270,27824,4829,"COM- Additional Storage Tanks (TS, HS, BA)",TK,27848,4829,Head Station,HS,Q2191-BL.CS.TK.HS,3
271,27824,4829,"COM- Additional Storage Tanks (TS, HS, BA)",TK,27858,4829,Terminal Station,TS,Q2191-BL.CS.TK.TS,3
272,27824,4829,"COM- Additional Storage Tanks (TS, HS, BA)",TK,27859,4829,Daoui,DO,Q2191-BL.CS.TK.DO,3
273,27824,4829,"COM- Additional Storage Tanks (TS, HS, BA)",TK,27860,4829,Beni Amir,BA,Q2191-BL.CS.TK.BA,3
274,27825,4829,PRC- Slurry Transfert - DWS to local Tanks,TF,27852,4829,PRC- Slurry Valves,VL,Q2191-BL.PR.TF.VL,3
275,27825,4829,PRC- Slurry Transfert - DWS to local Tanks,TF,27847,4829,PRC- Pumps,PM,Q2191-BL.PR.TF.PM,3
276,27825,4829,PRC- Slurry Transfert - DWS to local Tanks,TF,27825,4829,PRC- Slurry Transfert - DWS to local Tanks,TF,Q2191-BL.PR.TF,3
277,27825,4829,PRC- Slurry Transfert - DWS to local Tanks,TF,27908,4829,Potential Issues for Delay,DL,Q2191-BL.PR.TF.VL.DL,3
278,27825,4829,PRC- Slurry Transfert - DWS to local Tanks,TF,27902,4829,Potential Issues for Delay,DL,Q2191-BL.PR.TF.PM.DL,3
279,27826,4829,PRC - Silica Line,SL,27826,4829,PRC - Silica Line,SL,Q2191-BL.1.SL,3
280,27827,4829,"ENG- Common (VDS, Fire Protection, Access Upgrade)",CM,27827,4829,"ENG- Common (VDS, Fire Protection, Access Upgrade)",CM,Q2191-BL.DD.CM,3
281,27827,4829,"ENG- Common (VDS, Fire Protection, Access Upgrade)",CM,27849,4829,ENG- Fire Protection,FP,Q2191-BL.DD.CM.FP,3
282,27827,4829,"ENG- Common (VDS, Fire Protection, Access Upgrade)",CM,27869,4829,ENG - VDS,VD,Q2191-BL.DD.CM.VD,3
283,27827,4829,"ENG- Common (VDS, Fire Protection, Access Upgrade)",CM,27873,4829,EG - Access Upgrade,UG,Q2191-BL.DD.CM.UG,3
284,27828,4829,"PRC - General (VDS, Fire Protection, Access Upgrade)",CM,27870,4829,PRC- Structure Access Upgrades,AC,Q2191-BL.1.CM.AC,3
285,27828,4829,"PRC - General (VDS, Fire Protection, Access Upgrade)",CM,27868,4829,PRC- VDS (Video Surveillance System),VD,Q2191-BL.1.CM.VD,3
286,27828,4829,"PRC - General (VDS, Fire Protection, Access Upgrade)",CM,27850,4829,PRC- Fire Protection,FP,Q2191-BL.1.CM.FP,3
287,27828,4829,"PRC - General (VDS, Fire Protection, Access Upgrade)",CM,27828,4829,"PRC - General (VDS, Fire Protection, Access Upgrade)",CM,Q2191-BL.1.CM,3
288,27829,4829,ENG- Slurry Transfert - DWS to local Tanks,TF,27829,4829,ENG- Slurry Transfert - DWS to local Tanks,TF,Q2191-BL.DD.TF,3
289,27829,4829,ENG- Slurry Transfert - DWS to local Tanks,TF,27872,4829,Engineering (JESA),00,Q2191-BL.DD.TF.00,3
290,27829,4829,ENG- Slurry Transfert - DWS to local Tanks,TF,27890,4829,Engineering (STROC),01,Q2191-BL.DD.TF.01,3
291,27830,4829,PRC- Pipe Loop for Flash Water,WL,27830,4829,PRC- Pipe Loop for Flash Water,WL,Q2191-BL.PR.WL,3
292,27830,4829,PRC- Pipe Loop for Flash Water,WL,27851,4829,Potential Issues for Delay TRANSFERT,DL,Q2191-BL.PR.WL.DL,3
293,27831,4829,"ENG- Additional Storage Tanks (TS, HS, BA)",TK,27856,4829,ENG - Additional Storage Tanks - Daoui,DO,Q2191-BL.DD.TK.DO,3
294,27831,4829,"ENG- Additional Storage Tanks (TS, HS, BA)",TK,27831,4829,"ENG- Additional Storage Tanks (TS, HS, BA)",TK,Q2191-BL.DD.TK,3
295,27831,4829,"ENG- Additional Storage Tanks (TS, HS, BA)",TK,27882,4829,ENG - Additional Storage Tanks - Beni Amir,BA,Q2191-BL.DD.TK.BA,3
296,27831,4829,"ENG- Additional Storage Tanks (TS, HS, BA)",TK,27861,4829,ENG - Additional Storage Tanks -Terminal Station,TS,Q2191-BL.DD.TK.TS,3
297,27831,4829,"ENG- Additional Storage Tanks (TS, HS, BA)",TK,27864,4829,ENG - Additional Storage Tanks - Head Station,HS,Q2191-BL.DD.TK.HS,3
298,27831,4829,"ENG- Additional Storage Tanks (TS, HS, BA)",TK,27904,4829,ENG - Piping,PP,Q2191-BL.DD.TK.HS.PP,3
299,27831,4829,"ENG- Additional Storage Tanks (TS, HS, BA)",TK,27905,4829,ENG - Slurry Tanks,TK,Q2191-BL.DD.TK.TS.TK,3
300,27831,4829,"ENG- Additional Storage Tanks (TS, HS, BA)",TK,27906,4829,ENG - Piping,PP,Q2191-BL.DD.TK.BA.PP,3
301,27831,4829,"ENG- Additional Storage Tanks (TS, HS, BA)",TK,27900,4829,ENG - Agitator Structure & FDN,AG,Q2191-BL.DD.TK.TS.AG,3
302,27831,4829,"ENG- Additional Storage Tanks (TS, HS, BA)",TK,27901,4829,ENG - Piping,PP,Q2191-BL.DD.TK.TS.PP,3
303,27831,4829,"ENG- Additional Storage Tanks (TS, HS, BA)",TK,27898,4829,ENG - Slurry Tanks,TK,Q2191-BL.DD.TK.HS.TK,3
304,27831,4829,"ENG- Additional Storage Tanks (TS, HS, BA)",TK,27896,4829,ENG- Agitator Structure & FDN,AG,Q2191-BL.DD.TK.BA.AG,3
305,27831,4829,"ENG- Additional Storage Tanks (TS, HS, BA)",TK,27897,4829,ENG - Splitter box,1,Q2191-BL.DD.TK.DO.1,3
306,27831,4829,"ENG- Additional Storage Tanks (TS, HS, BA)",TK,27912,4829,ENG - Agitator Structure & FDN,AG,Q2191-BL.DD.TK.HS.AG,3
307,27831,4829,"ENG- Additional Storage Tanks (TS, HS, BA)",TK,27921,4829,ENG - Slurry Tanks   (New Tks FDNs),TK,Q2191-BL.DD.TK.BA.TK,3
308,27832,4829,"PRC - General (VDS, Fire Protection, Access Upgrade)",CM,27857,4829,PRC- Structure Access Upgrades,AC,Q2191-BL.PR.CM.AC,3
309,27832,4829,"PRC - General (VDS, Fire Protection, Access Upgrade)",CM,27874,4829,PRC- Fire Protection,FP,Q2191-BL.PR.CM.FP,3
310,27832,4829,"PRC - General (VDS, Fire Protection, Access Upgrade)",CM,27875,4829,PRC- VDS (Video Surveillance System),VD,Q2191-BL.PR.CM.VD,3
311,27832,4829,"PRC - General (VDS, Fire Protection, Access Upgrade)",CM,27832,4829,"PRC - General (VDS, Fire Protection, Access Upgrade)",CM,Q2191-BL.PR.CM,3
312,27833,4829,ENG- Pipe Loop for Flash Water,WL,27833,4829,ENG- Pipe Loop for Flash Water,WL,Q2191-BL.DD.WL,3
313,27834,4829,"COM- General (VDS, Fire Protection, Acess Upgrade)",CM,27834,4829,"COM- General (VDS, Fire Protection, Acess Upgrade)",CM,Q2191-BL.CS.CM,3
314,27834,4829,"COM- General (VDS, Fire Protection, Acess Upgrade)",CM,27855,4829,COM- Fire Protection,FP,Q2191-BL.CS.CM.FP,3
315,27834,4829,"COM- General (VDS, Fire Protection, Acess Upgrade)",CM,27854,4829,COM- VDS,VD,Q2191-BL.CS.CM.VD,3
316,27834,4829,"COM- General (VDS, Fire Protection, Acess Upgrade)",CM,27878,4829,COM - Access Upgrade,AC,Q2191-BL.CS.CM.AC,3
317,27835,4829,ENG - Silica Line,1,27835,4829,ENG - Silica Line,1,Q2191-BL.DD.1,3
318,27836,4829,"CONS- Additional Storage Tanks (TS, HS, BA)",TK,27836,4829,"CONS- Additional Storage Tanks (TS, HS, BA)",TK,Q2191-BL.CN.TK,3
319,27836,4829,"CONS- Additional Storage Tanks (TS, HS, BA)",TK,27880,4829,CONS- Additional Tanks - Terminal Station,TK1,Q2191-BL.CN.TK.TK1,3
320,27836,4829,"CONS- Additional Storage Tanks (TS, HS, BA)",TK,27877,4829,CONS- Additional Tanks - Beni Amir,TK3,Q2191-BL.CN.TK.TK3,3
321,27836,4829,"CONS- Additional Storage Tanks (TS, HS, BA)",TK,27894,4829,CONS-Daoui Splitter Box,TK,Q2191-BL.CN.TK.TK,3
322,27836,4829,"CONS- Additional Storage Tanks (TS, HS, BA)",TK,27871,4829,CONS- Additional Tanks - Head Station,TK2,Q2191-BL.CN.TK.TK2,3
323,27836,4829,"CONS- Additional Storage Tanks (TS, HS, BA)",TK,27923,4829,TS - Agitators,AG,Q2191-BL.CN.TK.TK1.AG,3
324,27836,4829,"CONS- Additional Storage Tanks (TS, HS, BA)",TK,27918,4829,BA Tanks - Structural Parts,ST,Q2191-BL.CN.TK.TK3.ST,3
325,27836,4829,"CONS- Additional Storage Tanks (TS, HS, BA)",TK,27919,4829,BA E&I,EI,Q2191-BL.CN.TK.TK3.EI,3
326,27836,4829,"CONS- Additional Storage Tanks (TS, HS, BA)",TK,27920,4829,BA Agitators,AG,Q2191-BL.CN.TK.TK3.AG,3
327,27836,4829,"CONS- Additional Storage Tanks (TS, HS, BA)",TK,27916,4829,BA Tanks - Civil Works,CV,Q2191-BL.CN.TK.TK3.CV,3
328,27836,4829,"CONS- Additional Storage Tanks (TS, HS, BA)",TK,27917,4829,BA Tanks - Piping,PP,Q2191-BL.CN.TK.TK3.PP,3
329,27836,4829,"CONS- Additional Storage Tanks (TS, HS, BA)",TK,27911,4829,TS Tanks - Piping,PP,Q2191-BL.CN.TK.TK1.PP,3
330,27836,4829,"CONS- Additional Storage Tanks (TS, HS, BA)",TK,27913,4829,Daoui Splitter Box - Piping,PP,Q2191-BL.CN.TK.TK.PP,3
331,27836,4829,"CONS- Additional Storage Tanks (TS, HS, BA)",TK,27914,4829,Daoui Splitter Box - Structural parts,ST,Q2191-BL.CN.TK.TK.ST,3
332,27836,4829,"CONS- Additional Storage Tanks (TS, HS, BA)",TK,27903,4829,TS Tanks - Structural Parts,ST,Q2191-BL.CN.TK.TK1.ST,3
333,27836,4829,"CONS- Additional Storage Tanks (TS, HS, BA)",TK,27910,4829,TS - E&I,EI,Q2191-BL.CN.TK.TK1.EI,3
334,27836,4829,"CONS- Additional Storage Tanks (TS, HS, BA)",TK,27927,4829,HS - Agitators,AG,Q2191-BL.CN.TK.TK2.AG,3
335,27836,4829,"CONS- Additional Storage Tanks (TS, HS, BA)",TK,27928,4829,HS - E&I,EI,Q2191-BL.CN.TK.TK2.EI,3
336,27836,4829,"CONS- Additional Storage Tanks (TS, HS, BA)",TK,27929,4829,HS Tanks - Structural part,ST,Q2191-BL.CN.TK.TK2.ST,3
337,27836,4829,"CONS- Additional Storage Tanks (TS, HS, BA)",TK,27930,4829,HS Tanks - Piping,PP,Q2191-BL.CN.TK.TK2.PP,3
338,27837,4829,"PRC- Additional Storage Tanks (TS, HS, BA)",TK,27926,4829,Potential Issues for Delay EI,DL,Q2191-BL.PR.TK.EI.DL,3
339,27837,4829,"PRC- Additional Storage Tanks (TS, HS, BA)",TK,27924,4829,Potential Issues for Delay TANKS,DL,Q2191-BL.PR.TK.TK.DL,3
340,27837,4829,"PRC- Additional Storage Tanks (TS, HS, BA)",TK,27922,4829,Potential Issues for Delay,DL,Q2191-BL.PR.TK.AG.DL,3
341,27837,4829,"PRC- Additional Storage Tanks (TS, HS, BA)",TK,27863,4829,PRC- Tanks,TK,Q2191-BL.PR.TK.TK,3
342,27837,4829,"PRC- Additional Storage Tanks (TS, HS, BA)",TK,27891,4829,PRC- Agitators,AG,Q2191-BL.PR.TK.AG,3
343,27837,4829,"PRC- Additional Storage Tanks (TS, HS, BA)",TK,27879,4829,PRC- Slurry Valves,VL,Q2191-BL.PR.TK.VL,3
344,27837,4829,"PRC- Additional Storage Tanks (TS, HS, BA)",TK,27837,4829,"PRC- Additional Storage Tanks (TS, HS, BA)",TK,Q2191-BL.PR.TK,3
345,27837,4829,"PRC- Additional Storage Tanks (TS, HS, BA)",TK,27846,4829,PRC- Electrical & Instruments,EI,Q2191-BL.PR.TK.EI,3
346,27838,4829,"MLS- Additional Storage Tanks (TS, HS, BA)",TK,27838,4829,"MLS- Additional Storage Tanks (TS, HS, BA)",TK,Q2191-BL.ML.TK,3
347,27839,4829,"MLS- Common (VDS, Fire Protection, Access Upgrade)",CM,27839,4829,"MLS- Common (VDS, Fire Protection, Access Upgrade)",CM,Q2191-BL.ML.CM,3
348,27840,4829,MLS- Pipe Loop for Flash Water,WL,27840,4829,MLS- Pipe Loop for Flash Water,WL,Q2191-BL.ML.WL,3
349,27841,4829,"PRC- Additional Storage Tanks (TS, HS, BA)",TK,27841,4829,"PRC- Additional Storage Tanks (TS, HS, BA)",TK,Q2191-BL.1.TK,3
350,27841,4829,"PRC- Additional Storage Tanks (TS, HS, BA)",TK,27853,4829,PRC- Slurry Valves,VL,Q2191-BL.1.TK.VL,3
351,27841,4829,"PRC- Additional Storage Tanks (TS, HS, BA)",TK,27876,4829,PRC- Tanks,TK,Q2191-BL.1.TK.TK,3
352,27841,4829,"PRC- Additional Storage Tanks (TS, HS, BA)",TK,27888,4829,PRC- Agitators,AG,Q2191-BL.1.TK.AG,3
353,27841,4829,"PRC- Additional Storage Tanks (TS, HS, BA)",TK,27915,4829,Tanks - Head Station,1,Q2191-BL.1.TK.TK.1,3
354,27841,4829,"PRC- Additional Storage Tanks (TS, HS, BA)",TK,27909,4829,Terminal Station,4,Q2191-BL.1.TK.TK.4,3
355,27841,4829,"PRC- Additional Storage Tanks (TS, HS, BA)",TK,27907,4829,Beni Amir,2,Q2191-BL.1.TK.TK.2,3
356,27841,4829,"PRC- Additional Storage Tanks (TS, HS, BA)",TK,27899,4829,Daoui,3,Q2191-BL.1.TK.TK.3,3
357,27842,4829,CONS- Slurry Transfert - DWS to local Tanks,TF,27931,4829,CONS- Piping,PP,Q2191-BL.CN.TF.TS.PP,3
358,27842,4829,CONS- Slurry Transfert - DWS to local Tanks,TF,27932,4829,CONS- E&I,EI,Q2191-BL.CN.TF.TS.EI,3
359,27842,4829,CONS- Slurry Transfert - DWS to local Tanks,TF,27933,4829,CONS-  Civil,CV,Q2191-BL.CN.TF.TS.CV,3
360,27842,4829,CONS- Slurry Transfert - DWS to local Tanks,TF,27934,4829,CONS- Pumps,PM,Q2191-BL.CN.TF.TS.PM,3
361,27842,4829,CONS- Slurry Transfert - DWS to local Tanks,TF,27935,4829,CONS- Structural,ST,Q2191-BL.CN.TF.TS.ST,3
362,27842,4829,CONS- Slurry Transfert - DWS to local Tanks,TF,27889,4829,CONS - Slurry Transfert - Terminal Station,TS,Q2191-BL.CN.TF.TS,3
363,27842,4829,CONS- Slurry Transfert - DWS to local Tanks,TF,27842,4829,CONS- Slurry Transfert - DWS to local Tanks,TF,Q2191-BL.CN.TF,3
364,27843,4829,CONS- Pipe Loop for Flash Water,WL,27843,4829,CONS- Pipe Loop for Flash Water,WL,Q2191-BL.CN.WL,3
365,27843,4829,CONS- Pipe Loop for Flash Water,WL,27884,4829,"DWS Loop Erection, Cx & Start-Up",ER,Q2191-BL.CN.WL.ER,3
366,27844,4829,CONS- Silica Line,SL,27881,4829,Silica Line - Mechanical Parts,PM,Q2191-BL.CN.SL.PM,3
367,27844,4829,CONS- Silica Line,SL,27887,4829,Silica Line - Piping,PP,Q2191-BL.CN.SL.PP,3
368,27844,4829,CONS- Silica Line,SL,27886,4829,Silica Line - Structural Works,ST,Q2191-BL.CN.SL.ST,3
369,27844,4829,CONS- Silica Line,SL,27893,4829,Silica Line - E&I,EI,Q2191-BL.CN.SL.EI,3
370,27844,4829,CONS- Silica Line,SL,27895,4829,Silica Line - Civil lWorks,CV,Q2191-BL.CN.SL.CV,3
371,27844,4829,CONS- Silica Line,SL,27844,4829,CONS- Silica Line,SL,Q2191-BL.CN.SL,3
372,27845,4829,PRC- Pipe Loop for Flash Water,WL,27845,4829,PRC- Pipe Loop for Flash Water,WL,Q2191-BL.1.WL,3
373,27846,4829,PRC- Electrical & Instruments,EI,27846,4829,PRC- Electrical & Instruments,EI,Q2191-BL.PR.TK.EI,4
374,27846,4829,PRC- Electrical & Instruments,EI,27926,4829,Potential Issues for Delay EI,DL,Q2191-BL.PR.TK.EI.DL,4
375,27847,4829,PRC- Pumps,PM,27902,4829,Potential Issues for Delay,DL,Q2191-BL.PR.TF.PM.DL,4
376,27847,4829,PRC- Pumps,PM,27847,4829,PRC- Pumps,PM,Q2191-BL.PR.TF.PM,4
377,27848,4829,Head Station,HS,27848,4829,Head Station,HS,Q2191-BL.CS.TK.HS,4
378,27849,4829,ENG- Fire Protection,FP,27849,4829,ENG- Fire Protection,FP,Q2191-BL.DD.CM.FP,4
379,27850,4829,PRC- Fire Protection,FP,27850,4829,PRC- Fire Protection,FP,Q2191-BL.1.CM.FP,4
380,27851,4829,Potential Issues for Delay TRANSFERT,DL,27851,4829,Potential Issues for Delay TRANSFERT,DL,Q2191-BL.PR.WL.DL,4
381,27852,4829,PRC- Slurry Valves,VL,27852,4829,PRC- Slurry Valves,VL,Q2191-BL.PR.TF.VL,4
382,27852,4829,PRC- Slurry Valves,VL,27908,4829,Potential Issues for Delay,DL,Q2191-BL.PR.TF.VL.DL,4
383,27853,4829,PRC- Slurry Valves,VL,27853,4829,PRC- Slurry Valves,VL,Q2191-BL.1.TK.VL,4
384,27854,4829,COM- VDS,VD,27854,4829,COM- VDS,VD,Q2191-BL.CS.CM.VD,4
385,27855,4829,COM- Fire Protection,FP,27855,4829,COM- Fire Protection,FP,Q2191-BL.CS.CM.FP,4
386,27856,4829,ENG - Additional Storage Tanks - Daoui,DO,27856,4829,ENG - Additional Storage Tanks - Daoui,DO,Q2191-BL.DD.TK.DO,4
387,27856,4829,ENG - Additional Storage Tanks - Daoui,DO,27897,4829,ENG - Splitter box,1,Q2191-BL.DD.TK.DO.1,4
388,27857,4829,PRC- Structure Access Upgrades,AC,27857,4829,PRC- Structure Access Upgrades,AC,Q2191-BL.PR.CM.AC,4
389,27858,4829,Terminal Station,TS,27858,4829,Terminal Station,TS,Q2191-BL.CS.TK.TS,4
390,27859,4829,Daoui,DO,27859,4829,Daoui,DO,Q2191-BL.CS.TK.DO,4
391,27860,4829,Beni Amir,BA,27860,4829,Beni Amir,BA,Q2191-BL.CS.TK.BA,4
392,27861,4829,ENG - Additional Storage Tanks -Terminal Station,TS,27861,4829,ENG - Additional Storage Tanks -Terminal Station,TS,Q2191-BL.DD.TK.TS,4
393,27861,4829,ENG - Additional Storage Tanks -Terminal Station,TS,27901,4829,ENG - Piping,PP,Q2191-BL.DD.TK.TS.PP,4
394,27861,4829,ENG - Additional Storage Tanks -Terminal Station,TS,27900,4829,ENG - Agitator Structure & FDN,AG,Q2191-BL.DD.TK.TS.AG,4
395,27861,4829,ENG - Additional Storage Tanks -Terminal Station,TS,27905,4829,ENG - Slurry Tanks,TK,Q2191-BL.DD.TK.TS.TK,4
396,27862,4829,CONS - VDS (Video Surveillance System),VD,27862,4829,CONS - VDS (Video Surveillance System),VD,Q2191-BL.CN.CM.VD,4
397,27863,4829,PRC- Tanks,TK,27863,4829,PRC- Tanks,TK,Q2191-BL.PR.TK.TK,4
398,27863,4829,PRC- Tanks,TK,27924,4829,Potential Issues for Delay TANKS,DL,Q2191-BL.PR.TK.TK.DL,4
399,27864,4829,ENG - Additional Storage Tanks - Head Station,HS,27904,4829,ENG - Piping,PP,Q2191-BL.DD.TK.HS.PP,4
400,27864,4829,ENG - Additional Storage Tanks - Head Station,HS,27898,4829,ENG - Slurry Tanks,TK,Q2191-BL.DD.TK.HS.TK,4
401,27864,4829,ENG - Additional Storage Tanks - Head Station,HS,27912,4829,ENG - Agitator Structure & FDN,AG,Q2191-BL.DD.TK.HS.AG,4
402,27864,4829,ENG - Additional Storage Tanks - Head Station,HS,27864,4829,ENG - Additional Storage Tanks - Head Station,HS,Q2191-BL.DD.TK.HS,4
403,27865,4829,PRC- Slurry Valves,VL,27865,4829,PRC- Slurry Valves,VL,Q2191-BL.1.TF.VL,4
404,27866,4829,CONS- Potential delay,1,27866,4829,CONS- Potential delay,1,Q2191-BL.1.TF.1,4
405,27867,4829,PRC- E&I (Planning not approved),EI,27867,4829,PRC- E&I (Planning not approved),EI,Q2191-BL.1.TF.EI,4
406,27868,4829,PRC- VDS (Video Surveillance System),VD,27868,4829,PRC- VDS (Video Surveillance System),VD,Q2191-BL.1.CM.VD,4
407,27869,4829,ENG - VDS,VD,27869,4829,ENG - VDS,VD,Q2191-BL.DD.CM.VD,4
408,27870,4829,PRC- Structure Access Upgrades,AC,27870,4829,PRC- Structure Access Upgrades,AC,Q2191-BL.1.CM.AC,4
409,27871,4829,CONS- Additional Tanks - Head Station,TK2,27871,4829,CONS- Additional Tanks - Head Station,TK2,Q2191-BL.CN.TK.TK2,4
410,27871,4829,CONS- Additional Tanks - Head Station,TK2,27927,4829,HS - Agitators,AG,Q2191-BL.CN.TK.TK2.AG,4
411,27871,4829,CONS- Additional Tanks - Head Station,TK2,27930,4829,HS Tanks - Piping,PP,Q2191-BL.CN.TK.TK2.PP,4
412,27871,4829,CONS- Additional Tanks - Head Station,TK2,27929,4829,HS Tanks - Structural part,ST,Q2191-BL.CN.TK.TK2.ST,4
413,27871,4829,CONS- Additional Tanks - Head Station,TK2,27928,4829,HS - E&I,EI,Q2191-BL.CN.TK.TK2.EI,4
414,27872,4829,Engineering (JESA),00,27872,4829,Engineering (JESA),00,Q2191-BL.DD.TF.00,4
415,27873,4829,EG - Access Upgrade,UG,27873,4829,EG - Access Upgrade,UG,Q2191-BL.DD.CM.UG,4
416,27874,4829,PRC- Fire Protection,FP,27874,4829,PRC- Fire Protection,FP,Q2191-BL.PR.CM.FP,4
417,27875,4829,PRC- VDS (Video Surveillance System),VD,27875,4829,PRC- VDS (Video Surveillance System),VD,Q2191-BL.PR.CM.VD,4
418,27876,4829,PRC- Tanks,TK,27876,4829,PRC- Tanks,TK,Q2191-BL.1.TK.TK,4
419,27876,4829,PRC- Tanks,TK,27915,4829,Tanks - Head Station,1,Q2191-BL.1.TK.TK.1,4
420,27876,4829,PRC- Tanks,TK,27899,4829,Daoui,3,Q2191-BL.1.TK.TK.3,4
421,27876,4829,PRC- Tanks,TK,27907,4829,Beni Amir,2,Q2191-BL.1.TK.TK.2,4
422,27876,4829,PRC- Tanks,TK,27909,4829,Terminal Station,4,Q2191-BL.1.TK.TK.4,4
423,27877,4829,CONS- Additional Tanks - Beni Amir,TK3,27920,4829,BA Agitators,AG,Q2191-BL.CN.TK.TK3.AG,4
424,27877,4829,CONS- Additional Tanks - Beni Amir,TK3,27916,4829,BA Tanks - Civil Works,CV,Q2191-BL.CN.TK.TK3.CV,4
425,27877,4829,CONS- Additional Tanks - Beni Amir,TK3,27917,4829,BA Tanks - Piping,PP,Q2191-BL.CN.TK.TK3.PP,4
426,27877,4829,CONS- Additional Tanks - Beni Amir,TK3,27918,4829,BA Tanks - Structural Parts,ST,Q2191-BL.CN.TK.TK3.ST,4
427,27877,4829,CONS- Additional Tanks - Beni Amir,TK3,27919,4829,BA E&I,EI,Q2191-BL.CN.TK.TK3.EI,4
428,27877,4829,CONS- Additional Tanks - Beni Amir,TK3,27877,4829,CONS- Additional Tanks - Beni Amir,TK3,Q2191-BL.CN.TK.TK3,4
429,27878,4829,COM - Access Upgrade,AC,27878,4829,COM - Access Upgrade,AC,Q2191-BL.CS.CM.AC,4
430,27879,4829,PRC- Slurry Valves,VL,27879,4829,PRC- Slurry Valves,VL,Q2191-BL.PR.TK.VL,4
431,27880,4829,CONS- Additional Tanks - Terminal Station,TK1,27880,4829,CONS- Additional Tanks - Terminal Station,TK1,Q2191-BL.CN.TK.TK1,4
432,27880,4829,CONS- Additional Tanks - Terminal Station,TK1,27910,4829,TS - E&I,EI,Q2191-BL.CN.TK.TK1.EI,4
433,27880,4829,CONS- Additional Tanks - Terminal Station,TK1,27911,4829,TS Tanks - Piping,PP,Q2191-BL.CN.TK.TK1.PP,4
434,27880,4829,CONS- Additional Tanks - Terminal Station,TK1,27903,4829,TS Tanks - Structural Parts,ST,Q2191-BL.CN.TK.TK1.ST,4
435,27880,4829,CONS- Additional Tanks - Terminal Station,TK1,27923,4829,TS - Agitators,AG,Q2191-BL.CN.TK.TK1.AG,4
436,27881,4829,Silica Line - Mechanical Parts,PM,27881,4829,Silica Line - Mechanical Parts,PM,Q2191-BL.CN.SL.PM,4
437,27882,4829,ENG - Additional Storage Tanks - Beni Amir,BA,27882,4829,ENG - Additional Storage Tanks - Beni Amir,BA,Q2191-BL.DD.TK.BA,4
438,27882,4829,ENG - Additional Storage Tanks - Beni Amir,BA,27906,4829,ENG - Piping,PP,Q2191-BL.DD.TK.BA.PP,4
439,27882,4829,ENG - Additional Storage Tanks - Beni Amir,BA,27896,4829,ENG- Agitator Structure & FDN,AG,Q2191-BL.DD.TK.BA.AG,4
440,27882,4829,ENG - Additional Storage Tanks - Beni Amir,BA,27921,4829,ENG - Slurry Tanks   (New Tks FDNs),TK,Q2191-BL.DD.TK.BA.TK,4
441,27883,4829,CONS - Fire Protection,FP,27925,4829,Potential Delay,1,Q2191-BL.CN.CM.FP.1,4
442,27883,4829,CONS - Fire Protection,FP,27883,4829,CONS - Fire Protection,FP,Q2191-BL.CN.CM.FP,4
443,27884,4829,"DWS Loop Erection, Cx & Start-Up",ER,27884,4829,"DWS Loop Erection, Cx & Start-Up",ER,Q2191-BL.CN.WL.ER,4
444,27885,4829,PRC- Pumps,PM,27885,4829,PRC- Pumps,PM,Q2191-BL.1.TF.PM,4
445,27886,4829,Silica Line - Structural Works,ST,27886,4829,Silica Line - Structural Works,ST,Q2191-BL.CN.SL.ST,4
446,27887,4829,Silica Line - Piping,PP,27887,4829,Silica Line - Piping,PP,Q2191-BL.CN.SL.PP,4
447,27888,4829,PRC- Agitators,AG,27888,4829,PRC- Agitators,AG,Q2191-BL.1.TK.AG,4
448,27889,4829,CONS - Slurry Transfert - Terminal Station,TS,27889,4829,CONS - Slurry Transfert - Terminal Station,TS,Q2191-BL.CN.TF.TS,4
449,27889,4829,CONS - Slurry Transfert - Terminal Station,TS,27931,4829,CONS- Piping,PP,Q2191-BL.CN.TF.TS.PP,4
450,27889,4829,CONS - Slurry Transfert - Terminal Station,TS,27935,4829,CONS- Structural,ST,Q2191-BL.CN.TF.TS.ST,4
451,27889,4829,CONS - Slurry Transfert - Terminal Station,TS,27934,4829,CONS- Pumps,PM,Q2191-BL.CN.TF.TS.PM,4
452,27889,4829,CONS - Slurry Transfert - Terminal Station,TS,27933,4829,CONS-  Civil,CV,Q2191-BL.CN.TF.TS.CV,4
453,27889,4829,CONS - Slurry Transfert - Terminal Station,TS,27932,4829,CONS- E&I,EI,Q2191-BL.CN.TF.TS.EI,4
454,27890,4829,Engineering (STROC),01,27890,4829,Engineering (STROC),01,Q2191-BL.DD.TF.01,4
455,27891,4829,PRC- Agitators,AG,27891,4829,PRC- Agitators,AG,Q2191-BL.PR.TK.AG,4
456,27891,4829,PRC- Agitators,AG,27922,4829,Potential Issues for Delay,DL,Q2191-BL.PR.TK.AG.DL,4
457,27892,4829,CONS - Structure Access,AC,27892,4829,CONS - Structure Access,AC,Q2191-BL.CN.CM.AC,4
458,27893,4829,Silica Line - E&I,EI,27893,4829,Silica Line - E&I,EI,Q2191-BL.CN.SL.EI,4
459,27894,4829,CONS-Daoui Splitter Box,TK,27894,4829,CONS-Daoui Splitter Box,TK,Q2191-BL.CN.TK.TK,4
460,27894,4829,CONS-Daoui Splitter Box,TK,27913,4829,Daoui Splitter Box - Piping,PP,Q2191-BL.CN.TK.TK.PP,4
461,27894,4829,CONS-Daoui Splitter Box,TK,27914,4829,Daoui Splitter Box - Structural parts,ST,Q2191-BL.CN.TK.TK.ST,4
462,27895,4829,Silica Line - Civil lWorks,CV,27895,4829,Silica Line - Civil lWorks,CV,Q2191-BL.CN.SL.CV,4
463,27896,4829,ENG- Agitator Structure & FDN,AG,27896,4829,ENG- Agitator Structure & FDN,AG,Q2191-BL.DD.TK.BA.AG,5
464,27897,4829,ENG - Splitter box,1,27897,4829,ENG - Splitter box,1,Q2191-BL.DD.TK.DO.1,5
465,27898,4829,ENG - Slurry Tanks,TK,27898,4829,ENG - Slurry Tanks,TK,Q2191-BL.DD.TK.HS.TK,5
466,27899,4829,Daoui,3,27899,4829,Daoui,3,Q2191-BL.1.TK.TK.3,5
467,27900,4829,ENG - Agitator Structure & FDN,AG,27900,4829,ENG - Agitator Structure & FDN,AG,Q2191-BL.DD.TK.TS.AG,5
468,27901,4829,ENG - Piping,PP,27901,4829,ENG - Piping,PP,Q2191-BL.DD.TK.TS.PP,5
469,27902,4829,Potential Issues for Delay,DL,27902,4829,Potential Issues for Delay,DL,Q2191-BL.PR.TF.PM.DL,5
470,27903,4829,TS Tanks - Structural Parts,ST,27903,4829,TS Tanks - Structural Parts,ST,Q2191-BL.CN.TK.TK1.ST,5
471,27904,4829,ENG - Piping,PP,27904,4829,ENG - Piping,PP,Q2191-BL.DD.TK.HS.PP,5
472,27905,4829,ENG - Slurry Tanks,TK,27905,4829,ENG - Slurry Tanks,TK,Q2191-BL.DD.TK.TS.TK,5
473,27906,4829,ENG - Piping,PP,27906,4829,ENG - Piping,PP,Q2191-BL.DD.TK.BA.PP,5
474,27907,4829,Beni Amir,2,27907,4829,Beni Amir,2,Q2191-BL.1.TK.TK.2,5
475,27908,4829,Potential Issues for Delay,DL,27908,4829,Potential Issues for Delay,DL,Q2191-BL.PR.TF.VL.DL,5
476,27909,4829,Terminal Station,4,27909,4829,Terminal Station,4,Q2191-BL.1.TK.TK.4,5
477,27910,4829,TS - E&I,EI,27910,4829,TS - E&I,EI,Q2191-BL.CN.TK.TK1.EI,5
478,27911,4829,TS Tanks - Piping,PP,27911,4829,TS Tanks - Piping,PP,Q2191-BL.CN.TK.TK1.PP,5
479,27912,4829,ENG - Agitator Structure & FDN,AG,27912,4829,ENG - Agitator Structure & FDN,AG,Q2191-BL.DD.TK.HS.AG,5
480,27913,4829,Daoui Splitter Box - Piping,PP,27913,4829,Daoui Splitter Box - Piping,PP,Q2191-BL.CN.TK.TK.PP,5
481,27914,4829,Daoui Splitter Box - Structural parts,ST,27914,4829,Daoui Splitter Box - Structural parts,ST,Q2191-BL.CN.TK.TK.ST,5
482,27915,4829,Tanks - Head Station,1,27915,4829,Tanks - Head Station,1,Q2191-BL.1.TK.TK.1,5
483,27916,4829,BA Tanks - Civil Works,CV,27916,4829,BA Tanks - Civil Works,CV,Q2191-BL.CN.TK.TK3.CV,5
484,27917,4829,BA Tanks - Piping,PP,27917,4829,BA Tanks - Piping,PP,Q2191-BL.CN.TK.TK3.PP,5
485,27918,4829,BA Tanks - Structural Parts,ST,27918,4829,BA Tanks - Structural Parts,ST,Q2191-BL.CN.TK.TK3.ST,5
486,27919,4829,BA E&I,EI,27919,4829,BA E&I,EI,Q2191-BL.CN.TK.TK3.EI,5
487,27920,4829,BA Agitators,AG,27920,4829,BA Agitators,AG,Q2191-BL.CN.TK.TK3.AG,5
488,27921,4829,ENG - Slurry Tanks   (New Tks FDNs),TK,27921,4829,ENG - Slurry Tanks   (New Tks FDNs),TK,Q2191-BL.DD.TK.BA.TK,5
489,27922,4829,Potential Issues for Delay,DL,27922,4829,Potential Issues for Delay,DL,Q2191-BL.PR.TK.AG.DL,5
490,27923,4829,TS - Agitators,AG,27923,4829,TS - Agitators,AG,Q2191-BL.CN.TK.TK1.AG,5
491,27924,4829,Potential Issues for Delay TANKS,DL,27924,4829,Potential Issues for Delay TANKS,DL,Q2191-BL.PR.TK.TK.DL,5
492,27925,4829,Potential Delay,1,27925,4829,Potential Delay,1,Q2191-BL.CN.CM.FP.1,5
493,27926,4829,Potential Issues for Delay EI,DL,27926,4829,Potential Issues for Delay EI,DL,Q2191-BL.PR.TK.EI.DL,5
494,27927,4829,HS - Agitators,AG,27927,4829,HS - Agitators,AG,Q2191-BL.CN.TK.TK2.AG,5
495,27928,4829,HS - E&I,EI,27928,4829,HS - E&I,EI,Q2191-BL.CN.TK.TK2.EI,5
496,27929,4829,HS Tanks - Structural part,ST,27929,4829,HS Tanks - Structural part,ST,Q2191-BL.CN.TK.TK2.ST,5
497,1073270,4829,Priorité N°1,1,1073270,4829,Priorité N°1,1,Q2191-BL.2.1,3
498,1073271,4829,Priorité N°2,2,1073271,4829,Priorité N°2,2,Q2191-BL.2.2,3
499,470971,4829,LOF,2,470971,4829,LOF,2,Q2191-BL.2,2
500,470971,4829,LOF,2,1073271,4829,Priorité N°2,2,Q2191-BL.2.2,2
501,470971,4829,LOF,2,1073270,4829,Priorité N°1,1,Q2191-BL.2.1,2
502,27930,4829,HS Tanks - Piping,PP,27930,4829,HS Tanks - Piping,PP,Q2191-BL.CN.TK.TK2.PP,5
503,27931,4829,CONS- Piping,PP,27931,4829,CONS- Piping,PP,Q2191-BL.CN.TF.TS.PP,5
504,27932,4829,CONS- E&I,EI,27932,4829,CONS- E&I,EI,Q2191-BL.CN.TF.TS.EI,5
505,27933,4829,CONS-  Civil,CV,27933,4829,CONS-  Civil,CV,Q2191-BL.CN.TF.TS.CV,5
506,27934,4829,CONS- Pumps,PM,27934,4829,CONS- Pumps,PM,Q2191-BL.CN.TF.TS.PM,5
507,27935,4829,CONS- Structural,ST,27935,4829,CONS- Structural,ST,Q2191-BL.CN.TF.TS.ST,5
